{
    "links": {
        "self": "http://www.neowsapp.com/rest/v1/neo/3656932?api_key=iIulBulltgU6a56xZRHN4H3l9WmuAYTsLGpBGhQ2"
    },
    "id": "3656932",
    "neo_reference_id": "3656932",
    "name": "(2014 BL25)",
    "designation": "2014 BL25",
    "nasa_jpl_url": "http://ssd.jpl.nasa.gov/sbdb.cgi?sstr=3656932",
    "absolute_magnitude_h": 23.8,
    "estimated_diameter": {
        "kilometers": {
            "estimated_diameter_min": 0.046190746,
            "estimated_diameter_max": 0.1032856481
        },
        "meters": {
            "estimated_diameter_min": 46.1907460282,
            "estimated_diameter_max": 103.2856480504
        },
        "miles": {
            "estimated_diameter_min": 0.0287015901,
            "estimated_diameter_max": 0.0641787064
        },
        "feet": {
            "estimated_diameter_min": 151.544447199,
            "estimated_diameter_max": 338.8636855496
        }
    },
    "is_potentially_hazardous_asteroid": false,
    "close_approach_data": [
        {
            "close_approach_date": "2014-01-22",
            "close_approach_date_full": "2014-Jan-22 18:09",
            "epoch_date_close_approach": 1390414140000,
            "relative_velocity": {
                "kilometers_per_second": "9.7516168756",
                "kilometers_per_hour": "35105.8207520181",
                "miles_per_hour": "21813.3917889414"
            },
            "miss_distance": {
                "astronomical": "0.1360858549",
                "lunar": "52.9373975561",
                "kilometers": "20358154.030169063",
                "miles": "12649970.3274285494"
            },
            "orbiting_body": "Earth"
        }
    ],
    "orbital_data": {
        "orbit_id": "8",
        "orbit_determination_date": "2017-04-06 08:42:45",
        "first_observation_date": "2014-01-26",
        "last_observation_date": "2014-02-02",
        "data_arc_in_days": 7,
        "observations_used": 37,
        "orbit_uncertainty": "9",
        "minimum_orbit_intersection": ".135876",
        "jupiter_tisserand_invariant": "3.625",
        "epoch_osculation": "2456686.5",
        "eccentricity": ".4525386533669776",
        "semi_major_axis": "2.037942198917696",
        "inclination": "16.17131360671912",
        "ascending_node_longitude": "126.2129902342465",
        "orbital_period": "1062.640148036102",
        "perihelion_distance": "1.115694580579745",
        "perihelion_argument": "348.6020362956401",
        "aphelion_distance": "2.960189817255647",
        "perihelion_time": "2456672.464394655408",
        "mean_anomaly": "4.754966141069852",
        "mean_motion": ".3387788431157313",
        "equinox": "J2000",
        "orbit_class": {
            "orbit_class_type": "AMO",
            "orbit_class_description": "Near-Earth asteroid orbits similar to that of 1221 Amor",
            "orbit_class_range": "1.017 AU < q (perihelion) < 1.3 AU"
        }
    },
    "is_sentry_object": false
}